CCSDS_OMM_VERS = 2.0
CREATION_DATE  = 
ORIGINATOR     = 

OBJECT_NAME    = TWILIGHT S
OBJECT_ID      = 2026-004S
CENTER_NAME    = EARTH
REF_FRAME      = TEME
TIME_SYSTEM    = UTC
MEAN_ELEMENT_THEORY = SGP/SGP4

EPOCH          = 2026-01-30T12:19:49.734912
MEAN_MOTION    = 14.87725543
ECCENTRICITY   = .000446
INCLINATION    = 97.7974
RA_OF_ASC_NODE = 31.3596
ARG_OF_PERICENTER = 214.7539
MEAN_ANOMALY   = 145.3387

EPHEMERIS_TYPE = 0
CLASSIFICATION_TYPE = U
NORAD_CAT_ID   = 67379
ELEMENT_SET_NO = 999
REV_AT_EPOCH   = 281
BSTAR          = .362E-3
MEAN_MOTION_DOT = .3247E-4
MEAN_MOTION_DDOT = 0

CCSDS_OMM_VERS = 2.0
CREATION_DATE  = 
ORIGINATOR     = 

OBJECT_NAME    = TWILIGHT T
OBJECT_ID      = 2026-004T
CENTER_NAME    = EARTH
REF_FRAME      = TEME
TIME_SYSTEM    = UTC
MEAN_ELEMENT_THEORY = SGP/SGP4

EPOCH          = 2026-01-30T12:18:11.412576
MEAN_MOTION    = 14.87825054
ECCENTRICITY   = .0003973
INCLINATION    = 97.7966
RA_OF_ASC_NODE = 31.3594
ARG_OF_PERICENTER = 213.5362
MEAN_ANOMALY   = 146.5604

EPHEMERIS_TYPE = 0
CLASSIFICATION_TYPE = U
NORAD_CAT_ID   = 67380
ELEMENT_SET_NO = 999
REV_AT_EPOCH   = 281
BSTAR          = .46402E-3
MEAN_MOTION_DOT = .4188E-4
MEAN_MOTION_DDOT = 0

CCSDS_OMM_VERS = 2.0
CREATION_DATE  = 
ORIGINATOR     = 

OBJECT_NAME    = TWILIGHT U
OBJECT_ID      = 2026-004U
CENTER_NAME    = EARTH
REF_FRAME      = TEME
TIME_SYSTEM    = UTC
MEAN_ELEMENT_THEORY = SGP/SGP4

EPOCH          = 2026-01-29T02:22:17.175360
MEAN_MOTION    = 14.87635069
ECCENTRICITY   = .00020921
INCLINATION    = 97.8008
RA_OF_ASC_NODE = 29.9801
ARG_OF_PERICENTER = 273.6119
MEAN_ANOMALY   = 86.4858

EPHEMERIS_TYPE = 0
CLASSIFICATION_TYPE = U
NORAD_CAT_ID   = 67381
ELEMENT_SET_NO = 999
REV_AT_EPOCH   = 260
BSTAR          = -.12140991E-1
MEAN_MOTION_DOT = -.108713E-2
MEAN_MOTION_DDOT = 0

CCSDS_OMM_VERS = 2.0
CREATION_DATE  = 
ORIGINATOR     = 

OBJECT_NAME    = TWILIGHT V
OBJECT_ID      = 2026-004V
CENTER_NAME    = EARTH
REF_FRAME      = TEME
TIME_SYSTEM    = UTC
MEAN_ELEMENT_THEORY = SGP/SGP4

EPOCH          = 2026-01-30T12:14:33.771840
MEAN_MOTION    = 14.88011134
ECCENTRICITY   = .0003916
INCLINATION    = 97.7995
RA_OF_ASC_NODE = 31.3670
ARG_OF_PERICENTER = 197.4858
MEAN_ANOMALY   = 162.6224

EPHEMERIS_TYPE = 0
CLASSIFICATION_TYPE = U
NORAD_CAT_ID   = 67382
ELEMENT_SET_NO = 999
REV_AT_EPOCH   = 281
BSTAR          = .26575E-3
MEAN_MOTION_DOT = .2386E-4
MEAN_MOTION_DDOT = 0

CCSDS_OMM_VERS = 2.0
CREATION_DATE  = 
ORIGINATOR     = 

OBJECT_NAME    = TWILIGHT W
OBJECT_ID      = 2026-004W
CENTER_NAME    = EARTH
REF_FRAME      = TEME
TIME_SYSTEM    = UTC
MEAN_ELEMENT_THEORY = SGP/SGP4

EPOCH          = 2026-01-30T12:19:34.860288
MEAN_MOTION    = 14.87741103
ECCENTRICITY   = .0004276
INCLINATION    = 97.7970
RA_OF_ASC_NODE = 31.3591
ARG_OF_PERICENTER = 215.7732
MEAN_ANOMALY   = 144.3198

EPHEMERIS_TYPE = 0
CLASSIFICATION_TYPE = U
NORAD_CAT_ID   = 67383
ELEMENT_SET_NO = 999
REV_AT_EPOCH   = 281
BSTAR          = .35982E-3
MEAN_MOTION_DOT = .3228E-4
MEAN_MOTION_DDOT = 0

CCSDS_OMM_VERS = 2.0
CREATION_DATE  = 
ORIGINATOR     = 

OBJECT_NAME    = TWILIGHT X
OBJECT_ID      = 2026-004X
CENTER_NAME    = EARTH
REF_FRAME      = TEME
TIME_SYSTEM    = UTC
MEAN_ELEMENT_THEORY = SGP/SGP4

EPOCH          = 2026-01-30T12:12:22.065408
MEAN_MOTION    = 14.88250078
ECCENTRICITY   = .0003364
INCLINATION    = 97.7969
RA_OF_ASC_NODE = 31.3655
ARG_OF_PERICENTER = 197.5715
MEAN_ANOMALY   = 162.5386

EPHEMERIS_TYPE = 0
CLASSIFICATION_TYPE = U
NORAD_CAT_ID   = 67384
ELEMENT_SET_NO = 999
REV_AT_EPOCH   = 281
BSTAR          = .88037E-3
MEAN_MOTION_DOT = .8082E-4
MEAN_MOTION_DDOT = 0

CCSDS_OMM_VERS = 2.0
CREATION_DATE  = 
ORIGINATOR     = 

OBJECT_NAME    = TWILIGHT Y
OBJECT_ID      = 2026-004Y
CENTER_NAME    = EARTH
REF_FRAME      = TEME
TIME_SYSTEM    = UTC
MEAN_ELEMENT_THEORY = SGP/SGP4

EPOCH          = 2026-01-30T12:10:50.250720
MEAN_MOTION    = 14.88331032
ECCENTRICITY   = .0003289
INCLINATION    = 97.7981
RA_OF_ASC_NODE = 31.3685
ARG_OF_PERICENTER = 190.6950
MEAN_ANOMALY   = 169.4198

EPHEMERIS_TYPE = 0
CLASSIFICATION_TYPE = U
NORAD_CAT_ID   = 67385
ELEMENT_SET_NO = 999
REV_AT_EPOCH   = 281
BSTAR          = .88799E-3
MEAN_MOTION_DOT = .8169E-4
MEAN_MOTION_DDOT = 0

CCSDS_OMM_VERS = 2.0
CREATION_DATE  = 
ORIGINATOR     = 

OBJECT_NAME    = TWILIGHT Z
OBJECT_ID      = 2026-004Z
CENTER_NAME    = EARTH
REF_FRAME      = TEME
TIME_SYSTEM    = UTC
MEAN_ELEMENT_THEORY = SGP/SGP4

EPOCH          = 2026-01-30T12:08:47.399424
MEAN_MOTION    = 14.88327321
ECCENTRICITY   = .0002127
INCLINATION    = 97.7962
RA_OF_ASC_NODE = 31.3686
ARG_OF_PERICENTER = 187.3154
MEAN_ANOMALY   = 172.8032

EPHEMERIS_TYPE = 0
CLASSIFICATION_TYPE = U
NORAD_CAT_ID   = 67386
ELEMENT_SET_NO = 999
REV_AT_EPOCH   = 281
BSTAR          = .40292E-3
MEAN_MOTION_DOT = .3674E-4
MEAN_MOTION_DDOT = 0

CCSDS_OMM_VERS = 2.0
CREATION_DATE  = 
ORIGINATOR     = 

OBJECT_NAME    = TWILIGHT AA
OBJECT_ID      = 2026-004AA
CENTER_NAME    = EARTH
REF_FRAME      = TEME
TIME_SYSTEM    = UTC
MEAN_ELEMENT_THEORY = SGP/SGP4

EPOCH          = 2026-01-30T12:04:14.055744
MEAN_MOTION    = 14.88645111
ECCENTRICITY   = .0003328
INCLINATION    = 97.8015
RA_OF_ASC_NODE = 31.3773
ARG_OF_PERICENTER = 155.4088
MEAN_ANOMALY   = 204.7288

EPHEMERIS_TYPE = 0
CLASSIFICATION_TYPE = U
NORAD_CAT_ID   = 67387
ELEMENT_SET_NO = 999
REV_AT_EPOCH   = 281
BSTAR          = .86019E-3
MEAN_MOTION_DOT = .7973E-4
MEAN_MOTION_DDOT = 0

CCSDS_OMM_VERS = 2.0
CREATION_DATE  = 
ORIGINATOR     = 

OBJECT_NAME    = TWILIGHT AB
OBJECT_ID      = 2026-004AB
CENTER_NAME    = EARTH
REF_FRAME      = TEME
TIME_SYSTEM    = UTC
MEAN_ELEMENT_THEORY = SGP/SGP4

EPOCH          = 2026-01-30T10:25:13.966752
MEAN_MOTION    = 14.88745657
ECCENTRICITY   = .0002969
INCLINATION    = 97.8003
RA_OF_ASC_NODE = 31.3121
ARG_OF_PERICENTER = 143.7924
MEAN_ANOMALY   = 216.3494

EPHEMERIS_TYPE = 0
CLASSIFICATION_TYPE = U
NORAD_CAT_ID   = 67388
ELEMENT_SET_NO = 999
REV_AT_EPOCH   = 280
BSTAR          = .79083E-3
MEAN_MOTION_DOT = .7343E-4
MEAN_MOTION_DDOT = 0

CCSDS_OMM_VERS = 2.0
CREATION_DATE  = 
ORIGINATOR     = 

OBJECT_NAME    = TWILIGHT AC
OBJECT_ID      = 2026-004AC
CENTER_NAME    = EARTH
REF_FRAME      = TEME
TIME_SYSTEM    = UTC
MEAN_ELEMENT_THEORY = SGP/SGP4

EPOCH          = 2026-01-30T11:31:39.327456
MEAN_MOTION    = 15.17075845
ECCENTRICITY   = .000525
INCLINATION    = 97.4560
RA_OF_ASC_NODE = 31.5443
ARG_OF_PERICENTER = 95.9168
MEAN_ANOMALY   = 264.2664

EPHEMERIS_TYPE = 0
CLASSIFICATION_TYPE = U
NORAD_CAT_ID   = 67389
ELEMENT_SET_NO = 999
REV_AT_EPOCH   = 286
BSTAR          = .42022E-3
MEAN_MOTION_DOT = .8261E-4
MEAN_MOTION_DDOT = 0

CCSDS_OMM_VERS = 2.0
CREATION_DATE  = 
ORIGINATOR     = 

OBJECT_NAME    = CONNECTA IOT-16
OBJECT_ID      = 2026-004AD
CENTER_NAME    = EARTH
REF_FRAME      = TEME
TIME_SYSTEM    = UTC
MEAN_ELEMENT_THEORY = SGP/SGP4

EPOCH          = 2026-01-30T11:30:59.186880
MEAN_MOTION    = 15.17041199
ECCENTRICITY   = .0005365
INCLINATION    = 97.4561
RA_OF_ASC_NODE = 31.5461
ARG_OF_PERICENTER = 93.4311
MEAN_ANOMALY   = 266.7536

EPHEMERIS_TYPE = 0
CLASSIFICATION_TYPE = U
NORAD_CAT_ID   = 67390
ELEMENT_SET_NO = 999
REV_AT_EPOCH   = 286
BSTAR          = .45317E-3
MEAN_MOTION_DOT = .8906E-4
MEAN_MOTION_DDOT = 0

CCSDS_OMM_VERS = 2.0
CREATION_DATE  = 
ORIGINATOR     = 

OBJECT_NAME    = TWILIGHT AE
OBJECT_ID      = 2026-004AE
CENTER_NAME    = EARTH
REF_FRAME      = TEME
TIME_SYSTEM    = UTC
MEAN_ELEMENT_THEORY = SGP/SGP4

EPOCH          = 2026-01-30T11:27:34.538976
MEAN_MOTION    = 15.17233364
ECCENTRICITY   = .0006878
INCLINATION    = 97.4514
RA_OF_ASC_NODE = 31.5363
ARG_OF_PERICENTER = 87.5398
MEAN_ANOMALY   = 272.6623

EPHEMERIS_TYPE = 0
CLASSIFICATION_TYPE = U
NORAD_CAT_ID   = 67391
ELEMENT_SET_NO = 999
REV_AT_EPOCH   = 286
BSTAR          = .5708E-3
MEAN_MOTION_DOT = .11302E-3
MEAN_MOTION_DDOT = 0

CCSDS_OMM_VERS = 2.0
CREATION_DATE  = 
ORIGINATOR     = 

OBJECT_NAME    = TWILIGHT AF
OBJECT_ID      = 2026-004AF
CENTER_NAME    = EARTH
REF_FRAME      = TEME
TIME_SYSTEM    = UTC
MEAN_ELEMENT_THEORY = SGP/SGP4

EPOCH          = 2026-01-30T11:21:46.927584
MEAN_MOTION    = 15.17992636
ECCENTRICITY   = .0006819
INCLINATION    = 97.4411
RA_OF_ASC_NODE = 31.5211
ARG_OF_PERICENTER = 95.9995
MEAN_ANOMALY   = 264.2016

EPHEMERIS_TYPE = 0
CLASSIFICATION_TYPE = U
NORAD_CAT_ID   = 67392
ELEMENT_SET_NO = 999
REV_AT_EPOCH   = 286
BSTAR          = .89411E-3
MEAN_MOTION_DOT = .18149E-3
MEAN_MOTION_DDOT = 0

CCSDS_OMM_VERS = 2.0
CREATION_DATE  = 
ORIGINATOR     = 

OBJECT_NAME    = TWILIGHT AG
OBJECT_ID      = 2026-004AG
CENTER_NAME    = EARTH
REF_FRAME      = TEME
TIME_SYSTEM    = UTC
MEAN_ELEMENT_THEORY = SGP/SGP4

EPOCH          = 2026-01-30T06:35:44.376288
MEAN_MOTION    = 15.17919263
ECCENTRICITY   = .00086046
INCLINATION    = 97.4558
RA_OF_ASC_NODE = 31.3557
ARG_OF_PERICENTER = 86.9494
MEAN_ANOMALY   = 273.2725

EPHEMERIS_TYPE = 0
CLASSIFICATION_TYPE = U
NORAD_CAT_ID   = 67393
ELEMENT_SET_NO = 999
REV_AT_EPOCH   = 283
BSTAR          = .86172869E-3
MEAN_MOTION_DOT = .17457E-3
MEAN_MOTION_DDOT = 0

